OBJECT_NAME,OBJECT_ID,EPOCH,MEAN_MOTION,ECCENTRICITY,INCLINATION,RA_OF_ASC_NODE,ARG_OF_PERICENTER,MEAN_ANOMALY,EPHEMERIS_TYPE,CLASSIFICATION_TYPE,NORAD_CAT_ID,ELEMENT_SET_NO,REV_AT_EPOCH,BSTAR,MEAN_MOTION_DOT,MEAN_MOTION_DDOT
SCD 1,1993-009B,2026-06-09T00:11:04.000416,14.46116003,.00421335,24.9691,258.0824,51.6277,297.6347,0,U,22490,999,75992,.47832843E-4,.36E-5,0
TECHSAT 1B (GO-32),1998-043D,2026-06-09T06:25:04.528128,14.24426844,.00005985,99.0065,152.8264,183.8868,176.2306,0,U,25397,999,45020,.45500244E-4,.59E-6,0
SCD 2,1998-060A,2026-06-09T06:05:33.000288,14.45522702,.00168912,24.9940,121.0820,40.1500,165.3737,0,U,25504,999,45917,.55212549E-4,.38E-5,0
DLR-TUBSAT,1999-029B,2026-06-09T05:35:54.575520,14.52424781,.00145578,98.6694,155.4756,19.0783,341.0953,0,U,25757,999,43209,.34091854E-4,.91E-6,0
TERRA,1999-068A,2026-06-09T07:00:10.803744,14.61096772,.00010113,97.9459,210.1508,225.7960,262.5868,0,U,25994,999,40845,.76469259E-4,.332E-5,0
MAROC-TUBSAT,2001-056D,2026-06-09T06:52:21.357984,13.70262087,.00200779,99.8079,336.9972,161.1125,18.8011,0,U,27004,999,22510,.35099921E-4,-.16E-6,0
AQUA,2002-022A,2026-06-09T06:17:45.595392,14.62145991,.00014235,98.4273,129.3871,53.8829,57.2493,0,U,27424,999,28211,.15343604E-3,.722E-5,0
SHIYAN-1 (SY-1),2004-012A,2026-06-09T05:22:09.316416,15.33557161,.00062563,97.8689,237.7760,58.3447,301.8404,0,U,28220,999,20987,.38005101E-3,.12255E-3,0
AURA,2004-026A,2026-06-09T05:58:17.049216,14.61316998,.00013133,98.3414,116.6367,71.6693,288.4650,0,U,28376,999,16505,.15380614E-3,.711E-5,0
IRS-P5 (CARTOSAT-1),2005-017A,2026-06-09T00:36:19.049472,14.91027575,.00026297,97.5309,183.4601,90.6376,269.5145,0,U,28649,999,14260,.1339636E-3,.1273E-4,0
SINAH 1,2005-043D,2026-06-09T06:19:24.250368,14.64152355,.0013299,98.2850,294.5393,303.9693,56.0245,0,U,28893,999,9936,.63992988E-4,.287E-5,0
RESURS-DK 1,2006-021A,2026-06-09T07:13:43.558176,15.13181843,.00065391,69.9339,359.9664,298.0089,62.0415,0,U,29228,999,10138,.1255203E-3,.2125E-4,0
ARIRANG-2 (KOMPSAT-2),2006-031A,2026-06-09T07:28:56.253216,14.64654957,.0015885,97.8313,345.1399,97.1090,26.8947,0,U,29268,999,6032,.55816862E-4,.252E-5,0
LAPAN-TUBSAT,2007-001A,2026-06-09T07:24:09.042336,14.85945386,.00112261,98.1348,159.3552,205.7995,154.2661,0,U,29709,999,4998,.11300409E-3,.929E-5,0
HAIYANG-1B,2007-010A,2026-06-09T04:10:24.897792,14.31024859,.00125631,98.3490,142.3300,221.3114,138.7120,0,U,31113,999,99948,.4807395E-4,.85E-6,0
COSMO-SKYMED 1,2007-023A,2026-06-09T05:57:18.051840,14.97063004,.00010809,97.8856,352.0383,82.2467,277.8877,0,U,31598,999,2860,.15741838E-3,.1754E-4,0
TERRASAR-X,2007-026A,2026-06-08T11:55:50.528640,15.19149352,.00017018,97.4450,167.3291,82.8468,277.2960,0,U,31698,999,5190,.36934369E-4,.709E-5,0
WORLDVIEW-1 (WV-1),2007-041A,2026-06-09T06:47:19.726080,15.24178659,.00029679,97.3862,280.1415,43.2252,316.9218,0,U,32060,999,4167,.227696E-3,.5474E-4,0
YAOGAN-3,2007-055A,2026-06-09T06:34:51.184128,14.90749424,.00018402,97.8159,190.2304,84.3994,275.7434,0,U,32289,999,469,.16116713E-3,.1527E-4,0
COSMO-SKYMED 2,2007-059A,2026-06-09T06:17:42.582624,14.82148270,.00014147,97.8885,343.9755,85.4004,274.7370,0,U,32376,999,83,.50725824E-4,.352E-5,0
RADARSAT-2,2007-061A,2026-06-09T06:30:18.406368,14.29983714,.0001307,98.5783,167.3166,82.2236,277.9095,0,U,32382,999,96482,.71161307E-4,.14E-5,0
CARTOSAT-2A,2008-021A,2026-06-09T06:25:09.386400,14.79226721,.00127483,97.7635,209.2464,131.9610,228.2690,0,U,32783,999,97763,.70643566E-4,.475E-5,0
HUANJING 1A (HJ-1A),2008-041A,2026-06-09T06:39:13.783968,14.83970641,.00192441,97.6686,146.4223,159.5773,200.6215,0,U,33320,999,95723,.17225457E-3,.1386E-4,0
HUANJING 1B (HJ-1B),2008-041B,2026-06-09T05:49:32.854368,14.83301963,.00353025,97.6522,149.5844,207.5936,152.3405,0,U,33321,999,95723,.5760392E-4,.424E-5,0
GEOEYE 1,2008-042A,2026-06-09T05:27:43.712064,14.64718305,.00055656,98.1235,234.2595,88.5602,271.6238,0,U,33331,999,94898,.85576201E-4,.408E-5,0
THEOS,2008-049A,2026-06-09T06:56:24.760608,14.20132237,.00012675,98.5570,217.8292,79.3329,280.7990,0,U,33396,999,91684,.83856938E-4,.136E-5,0
COSMO-SKYMED 3,2008-054A,2026-06-09T05:47:33.163584,15.06896443,.00142869,97.8291,18.6805,296.9032,63.0734,0,U,33412,999,95574,.79071773E-4,.1116E-4,0
YAOGAN-4,2008-061A,2026-06-09T06:34:24.691296,14.83184687,.00157502,97.9307,93.8428,95.8047,264.4962,0,U,33446,999,94449,.11351305E-3,.874E-5,0
GOSAT (IBUKI),2009-002A,2026-06-09T07:08:16.393344,14.67539177,.00016406,98.0882,271.4777,90.6440,269.4952,0,U,33492,999,93030,.19082412E-3,.1034E-4,0
DEIMOS-1,2009-041A,2026-06-09T07:38:31.526880,14.75228098,.00011584,97.7400,317.8878,138.2689,221.8609,0,U,35681,999,90572,.38706291E-4,.214E-5,0
