SCD 1                   
1 22490U 93009B   26160.00768519  .00000360  00000+0  47833-4 0  9996
2 22490  24.9691 258.0824 0042133  51.6277 297.6347 14.46116003759926
TECHSAT 1B (GO-32)      
1 25397U 98043D   26160.26741352  .00000059  00000+0  45500-4 0  9996
2 25397  99.0065 152.8264 0000598 183.8868 176.2306 14.24426844450204
SCD 2                   
1 25504U 98060A   26160.25385417  .00000380  00000+0  55213-4 0  9999
2 25504  24.9940 121.0820 0016891  40.1500 165.3737 14.45522702459175
DLR-TUBSAT              
1 25757U 99029B   26160.23327055  .00000091  00000+0  34092-4 0  9998
2 25757  98.6694 155.4756 0014557  19.0783 341.0953 14.52424781432094
TERRA                   
1 25994U 99068A   26160.29179171  .00000332  00000+0  76469-4 0  9996
2 25994  97.9459 210.1508 0001011 225.7960 262.5868 14.61096772408456
MAROC-TUBSAT            
1 27004U 01056D   26160.28635831 -.00000016  00000+0  35100-4 0  9996
2 27004  99.8079 336.9972 0020077 161.1125  18.8011 13.70262087225104
AQUA                    
1 27424U 02022A   26160.26233328  .00000722  00000+0  15344-3 0  9999
2 27424  98.4273 129.3871 0001423  53.8829  57.2493 14.62145991282116
SHIYAN-1 (SY-1)         
1 28220U 04012A   26160.22371894  .00012255  00000+0  38005-3 0  9995
2 28220  97.8689 237.7760 0006256  58.3447 301.8404 15.33557161209878
AURA                    
1 28376U 04026A   26160.24880844  .00000711  00000+0  15381-3 0  9990
2 28376  98.3414 116.6367 0001313  71.6693 288.4650 14.61316998165055
IRS-P5 (CARTOSAT-1)     
1 28649U 05017A   26160.02522048  .00001273  00000+0  13396-3 0  9997
2 28649  97.5309 183.4601 0002629  90.6376 269.5145 14.91027575142603
SINAH 1                 
1 28893U 05043D   26160.26347512  .00000287  00000+0  63993-4 0  9997
2 28893  98.2850 294.5393 0013299 303.9693  56.0245 14.64152355 99361
RESURS-DK 1             
1 29228U 06021A   26160.30119859  .00002125  00000+0  12552-3 0  9990
2 29228  69.9339 359.9664 0006539 298.0089  62.0415 15.13181843101381
ARIRANG-2 (KOMPSAT-2)   
1 29268U 06031A   26160.31176219  .00000252  00000+0  55817-4 0  9990
2 29268  97.8313 345.1399 0015885  97.1090  26.8947 14.64654957 60325
LAPAN-TUBSAT            
1 29709U 07001A   26160.30843799  .00000929  00000+0  11300-3 0  9990
2 29709  98.1348 159.3552 0011226 205.7995 154.2661 14.85945386 49989
HAIYANG-1B              
1 31113U 07010A   26160.17389928  .00000085  00000+0  48074-4 0  9998
2 31113  98.3490 142.3300 0012563 221.3114 138.7120 14.31024859999486
COSMO-SKYMED 1          
1 31598U 07023A   26160.24812560  .00001754  00000+0  15742-3 0  9999
2 31598  97.8856 352.0383 0001080  82.2467 277.8877 14.97063004 28609
TERRASAR-X              
1 31698U 07026A   26159.49711260  .00000709  00000+0  36934-4 0  9999
2 31698  97.4450 167.3291 0001701  82.8468 277.2960 15.19149352 51900
WORLDVIEW-1 (WV-1)      
1 32060U 07041A   26160.28286720  .00005474  00000+0  22770-3 0  9993
2 32060  97.3862 280.1415 0002967  43.2252 316.9218 15.24178659 41677
YAOGAN-3                
1 32289U 07055A   26160.27420352  .00001527  00000+0  16117-3 0  9994
2 32289  97.8159 190.2304 0001840  84.3994 275.7434 14.90749424  4699
COSMO-SKYMED 2          
1 32376U 07059A   26160.26229841  .00000352  00000+0  50726-4 0  9994
2 32376  97.8885 343.9755 0001414  85.4004 274.7370 14.82148270   833
RADARSAT-2              
1 32382U 07061A   26160.27104637  .00000140  00000+0  71161-4 0  9991
2 32382  98.5783 167.3166 0001307  82.2236 277.9095 14.29983714964820
CARTOSAT-2A             
1 32783U 08021A   26160.26746975  .00000475  00000+0  70644-4 0  9995
2 32783  97.7635 209.2464 0012748 131.9610 228.2690 14.79226721977634
HUANJING 1A (HJ-1A)     
1 33320U 08041A   26160.27724287  .00001386  00000+0  17225-3 0  9995
2 33320  97.6686 146.4223 0019244 159.5773 200.6215 14.83970641957239
HUANJING 1B (HJ-1B)     
1 33321U 08041B   26160.24274137  .00000424  00000+0  57604-4 0  9995
2 33321  97.6522 149.5844 0035302 207.5936 152.3405 14.83301963957239
GEOEYE 1                
1 33331U 08042A   26160.22758926  .00000408  00000+0  85576-4 0  9999
2 33331  98.1235 234.2595 0005565  88.5602 271.6238 14.64718305948989
THEOS                   
1 33396U 08049A   26160.28917547  .00000136  00000+0  83857-4 0  9997
2 33396  98.5570 217.8292 0001267  79.3329 280.7990 14.20132237916848
COSMO-SKYMED 3          
1 33412U 08054A   26160.24135606  .00001116  00000+0  79072-4 0  9999
2 33412  97.8291  18.6805 0014286 296.9032  63.0734 15.06896443955740
YAOGAN-4                
1 33446U 08061A   26160.27389689  .00000874  00000+0  11351-3 0  9994
2 33446  97.9307  93.8428 0015750  95.8047 264.4962 14.83184687944495
GOSAT (IBUKI)           
1 33492U 09002A   26160.29741196  .00001034  00000+0  19082-3 0  9996
2 33492  98.0882 271.4777 0001640  90.6440 269.4952 14.67539177930309
DEIMOS-1                
1 35681U 09041A   26160.31842045  .00000214  00000+0  38706-4 0  9993
2 35681  97.7400 317.8878 0001158 138.2689 221.8609 14.75228098905723
